[{"OBJECT_NAME":"SORCE","OBJECT_ID":"2003-004A","EPOCH":"2026-03-09T10:24:05.899968","MEAN_MOTION":15.03094555,"ECCENTRICITY":0.00159303,"INCLINATION":39.9899,"RA_OF_ASC_NODE":110.5611,"ARG_OF_PERICENTER":53.0009,"MEAN_ANOMALY":307.2241,"EPHEMERIS_TYPE":0,"CLASSIFICATION_TYPE":"U","NORAD_CAT_ID":27651,"ELEMENT_SET_NO":999,"REV_AT_EPOCH":25688,"BSTAR":0.00029572763,"MEAN_MOTION_DOT":3.92e-5,"MEAN_MOTION_DDOT":0},{"OBJECT_NAME":"STARLINK-4620","OBJECT_ID":"2022-105AC","EPOCH":"2026-03-09T16:06:05.683968","MEAN_MOTION":15.01259647,"ECCENTRICITY":0.0004111,"INCLINATION":97.601,"RA_OF_ASC_NODE":310.1957,"ARG_OF_PERICENTER":45.2183,"MEAN_ANOMALY":314.9376,"EPHEMERIS_TYPE":0,"CLASSIFICATION_TYPE":"U","NORAD_CAT_ID":53674,"ELEMENT_SET_NO":999,"REV_AT_EPOCH":19323,"BSTAR":-1.934145e-6,"MEAN_MOTION_DOT":-8.3e-7,"MEAN_MOTION_DDOT":0}]
