SORCE                   
1 27651U 03004A   26068.43340162  .00003920  00000+0  29573-3 0  9995
2 27651  39.9899 110.5611 0015930  53.0009 307.2241 15.03094555256885
STARLINK-4620           
1 53674U 22105AC  26068.67089911 -.00000083  00000+0 -19341-5 0  9993
2 53674  97.6010 310.1957 0004111  45.2183 314.9376 15.01259647193237
